{"epoch":1784799577,"count":18318,"objects":[{"id":"33434","name":"CHUANG XIN 1-02(CX-1-02)","type":"PAYLOAD","l1":"1 33434U 08056B   26203.97830194 -.00000078  00000-0 -12996-4 0  9998","l2":"2 33434  98.6134 229.8864 0015050  39.3864 320.8410 14.30159114923734"},{"id":"33498","name":"STARS (KUKAI)","type":"PAYLOAD","l1":"1 33498U 09002G   26203.80557380  .00004012  00000-0  36329-3 0  9990","l2":"2 33498  98.1555 152.5755 0009963  59.5951 300.6252 14.95964883943802"},{"id":"33499","name":"KKS-1 (KISEKI)","type":"PAYLOAD","l1":"1 33499U 09002H   26203.87775289  .00001065  00000-0  13722-3 0  9995","l2":"2 33499  98.1169 126.8851 0008046 164.0131 196.1337 14.83202864941483"},{"id":"33591","name":"NOAA 19","type":"PAYLOAD","l1":"1 33591U 09005A   26203.93904958  .00000007  00000-0  27728-4 0  9992","l2":"2 33591  98.9503 274.8367 0012721 290.6186  69.3622 14.13479191899531"},{"id":"35683","name":"DMC 2","type":"PAYLOAD","l1":"1 35683U 09041C   26203.95025753  .00001087  00000-0  16469-3 0  9993","l2":"2 35683  97.8878 338.0520 0001721  98.7292 261.4113 14.76102702911844"},{"id":"35865","name":"METEOR-M","type":"PAYLOAD","l1":"1 35865U 09049A   26203.79081703  .00000045  00000-0  39561-4 0  9994","l2":"2 35865  98.7410 166.0128 0001921 175.4146 184.7050 14.23163647874318"},{"id":"35931","name":"OCEANSAT 2","type":"PAYLOAD","l1":"1 35931U 09051A   26203.94261759  .00000155  00000-0  13113-3 0  9995","l2":"2 35931  98.2328 187.2243 0017787 131.3936 228.8763 13.99656949884331"},{"id":"35932","name":"SWISSCUBE","type":"PAYLOAD","l1":"1 35932U 09051B   26203.67653410  .00000737  00000-0  15493-3 0  9994","l2":"2 35932  98.3999 112.1787 0008098  99.2605 260.9512 14.62540683894346"},{"id":"35933","name":"BEESAT","type":"PAYLOAD","l1":"1 35933U 09051C   26203.84145627  .00000667  00000-0  14346-3 0  9998","l2":"2 35933  98.3927 111.9069 0006451 110.1032 250.0863 14.61770632894398"},{"id":"35935","name":"ITUPSAT 1","type":"PAYLOAD","l1":"1 35935U 09051E   26203.72659903  .00000550  00000-0  12334-3 0  9990","l2":"2 35935  98.4011 110.9439 0008488 122.2889 237.9135 14.60486457893923"},{"id":"35951","name":"DMSP 5D-3 F18 (USA 210)","type":"PAYLOAD","l1":"1 35951U 09057A   26203.92314267  .00000227  00000-0  14073-3 0  9990","l2":"2 35951  98.9063 184.6193 0011648 144.3614 215.8339 14.14915400864643"},{"id":"36037","name":"PROBA 2","type":"PAYLOAD","l1":"1 36037U 09059B   26203.31587936  .00000149  00000-0  45107-4 0  9992","l2":"2 36037  98.2464  26.1841 0013521 166.8392 193.3161 14.54875759886633"},{"id":"36110","name":"YAOGAN 7","type":"PAYLOAD","l1":"1 36110U 09069A   26203.63058784  .00000319  00000-0  51407-4 0  9993","l2":"2 36110  98.0023  89.2710 0023181 286.1393  73.7266 14.78040201894862"},{"id":"36122","name":"XIWANG-1 (HOPE-1)","type":"PAYLOAD","l1":"1 36122U 09072B   26203.96346326 -.00000282  00000-0 -62132-3 0  9995","l2":"2 36122 100.4040 157.2272 0007752 147.4575 212.7017 13.16439539797710"},{"id":"36358","name":"RADUGA 1M-2","type":"PAYLOAD","l1":"1 36358U 10002A   26203.92735700 -.00000273  00000-0  00000-0 0  9997","l2":"2 36358   3.7114  78.4140 0004620 264.4126  72.6083  0.98970001 50379"},{"id":"36519","name":"COSMOS 2463","type":"PAYLOAD","l1":"1 36519U 10017A   26203.81063890  .00000037  00000-0  24155-4 0  9992","l2":"2 36519  82.9578 223.5312 0036899  33.2742 143.2192 13.71667437812816"},{"id":"36795","name":"CARTOSAT 2B","type":"PAYLOAD","l1":"1 36795U 10035A   26203.93450970  .00000107  00000-0  21715-4 0  9997","l2":"2 36795  97.9935 254.2512 0012756  77.9360 282.3279 14.78655836865137"},{"id":"36797","name":"AISSAT 1","type":"PAYLOAD","l1":"1 36797U 10035C   26203.69262714  .00001264  00000-0  11384-3 0  9994","l2":"2 36797  98.0887 104.1847 0007643 308.2049  51.8483 14.97498274869530"},{"id":"36799","name":"TISAT 1","type":"PAYLOAD","l1":"1 36799U 10035E   26203.31405679  .00022110  00000-0  69642-3 0  9997","l2":"2 36799  98.0706 153.0175 0004834 106.5546 253.6226 15.32930011873081"},{"id":"36834","name":"YAOGAN 10","type":"PAYLOAD","l1":"1 36834U 10038A   26203.99082047  .00001510  00000-0  18145-3 0  9997","l2":"2 36834  97.8978 227.1099 0001652  85.2644   0.3132 14.85447272862523"},{"id":"37180","name":"SHIJIAN 6 04B (SJ-6 04B)","type":"PAYLOAD","l1":"1 37180U 10051B   26203.99392160 -.00000079  00000-0 -14474-5 0  9991","l2":"2 37180  97.8728 209.7880 0008703 188.2605 171.8476 14.99379845861046"},{"id":"37214","name":"FENGYUN 3B","type":"PAYLOAD","l1":"1 37214U 10059A   26203.95764329 -.00000393  00000-0 -17974-3 0  9998","l2":"2 37214  98.9604 250.1199 0023264  85.7782  35.2058 14.14846554812484"},{"id":"37216","name":"SKYMED 4","type":"PAYLOAD","l1":"1 37216U 10060A   26203.95430730  .00001010  00000-0  13347-3 0  9993","l2":"2 37216  97.8906  27.0374 0001566  87.1014 273.0378 14.82158784849865"},{"id":"37224","name":"O/OREOS (USA 219)","type":"PAYLOAD","l1":"1 37224U 10062C   26203.42053629  .00001606  00000-0  15681-3 0  9998","l2":"2 37224  71.9704   0.5182 0014482 351.1937   8.8977 14.93871007121904"},{"id":"37344","name":"ELEKTRO-L","type":"PAYLOAD","l1":"1 37344U 11001A   26203.66066433  .00000042  00000-0  00000-0 0  9997","l2":"2 37344   9.7642  54.1385 0004385  35.7121 322.4542  1.00163247 56834"},{"id":"37387","name":"RESOURCESAT 2","type":"PAYLOAD","l1":"1 37387U 11015A   26203.91389446  .00000054  00000-0  44738-4 0  9992","l2":"2 37387  98.7625 271.1053 0011980 149.8556 210.3313 14.21600835791250"},{"id":"37388","name":"YOUTHSAT","type":"PAYLOAD","l1":"1 37388U 11015B   26203.87366477  .00000151  00000-0  81302-4 0  9993","l2":"2 37388  98.3711 176.3238 0013354 234.6831 153.2866 14.25642919792724"},{"id":"37793","name":"APRIZESAT 6","type":"PAYLOAD","l1":"1 37793U 11044F   26203.31968863  .00000581  00000-0  89357-4 0  9996","l2":"2 37793  98.2329 114.5327 0042494 335.3434 147.2526 14.76964313802332"},{"id":"37839","name":"JUGNU","type":"PAYLOAD","l1":"1 37839U 11058B   26203.94713903  .00000401  00000-0  70021-4 0  9993","l2":"2 37839  19.9608  91.1655 0018657 111.5761 351.8524 14.13785237764096"},{"id":"37841","name":"SRMSAT","type":"PAYLOAD","l1":"1 37841U 11058D   26203.73053212  .00000352  00000-0  46977-4 0  9991","l2":"2 37841  19.9701 204.3328 0011565 234.5012 307.5030 14.11582174762848"}]}