OBJECT_NAME,OBJECT_ID,EPOCH,MEAN_MOTION,ECCENTRICITY,INCLINATION,RA_OF_ASC_NODE,ARG_OF_PERICENTER,MEAN_ANOMALY,EPHEMERIS_TYPE,CLASSIFICATION_TYPE,NORAD_CAT_ID,ELEMENT_SET_NO,REV_AT_EPOCH,BSTAR,MEAN_MOTION_DOT,MEAN_MOTION_DDOT
CHUANGXIN 1-02 (CX-1-02),2008-056B,2026-07-22T23:28:45.287616,14.30159114,.00150498,98.6134,229.8864,39.3864,320.8410,0,U,33434,999,92373,-.12996217E-4,-.78E-6,0
STARS (KUKAI),2009-002G,2026-07-22T19:20:01.576320,14.95964883,.00099634,98.1555,152.5755,59.5951,300.6252,0,U,33498,999,94380,.36328559E-3,.4012E-4,0
KKS-1 (KISEKI),2009-002H,2026-07-22T21:03:57.849696,14.83202864,.00080455,98.1169,126.8851,164.0131,196.1337,0,U,33499,999,94148,.1372151E-3,.1065E-4,0
NOAA 19,2009-005A,2026-07-22T22:32:13.883712,14.13479191,.00127212,98.9503,274.8367,290.6186,69.3622,0,U,33591,999,89953,.2772804E-4,.7E-7,0
UK-DMC 2,2009-041C,2026-07-22T22:48:22.250592,14.76102702,.00017213,97.8878,338.0520,98.7292,261.4113,0,U,35683,999,91184,.16469013E-3,.1087E-4,0
METEOR-M 1,2009-049A,2026-07-22T18:58:46.591392,14.23163647,.00019213,98.7410,166.0128,175.4146,184.7050,0,U,35865,999,87431,.39560695E-4,.45E-6,0
OCEANSAT-2,2009-051A,2026-07-22T22:37:22.159776,13.99656949,.00177868,98.2328,187.2243,131.3936,228.8763,0,U,35931,999,88433,.1311322E-3,.155E-5,0
SWISSCUBE,2009-051B,2026-07-22T16:14:12.546240,14.62540683,.00080983,98.3999,112.1787,99.2605,260.9512,0,U,35932,999,89434,.15493415E-3,.737E-5,0
BEESAT-1,2009-051C,2026-07-22T20:11:41.821728,14.61770632,.00064514,98.3927,111.9069,110.1032,250.0863,0,U,35933,999,89439,.1434567E-3,.667E-5,0
ITUPSAT1,2009-051E,2026-07-22T17:26:18.156192,14.60486457,.00084883,98.4011,110.9439,122.2889,237.9135,0,U,35935,999,89392,.12333947E-3,.55E-5,0
DMSP 5D-3 F18 (USA 210),2009-057A,2026-07-22T22:09:19.526688,14.14915400,.00116479,98.9063,184.6193,144.3614,215.8339,0,U,35951,999,86464,.14072855E-3,.227E-5,0
PROBA-2,2009-059B,2026-07-22T07:34:51.976704,14.54875759,.00135211,98.2464,26.1841,166.8392,193.3161,0,U,36037,999,88663,.45106772E-4,.149E-5,0
YAOGAN-7,2009-069A,2026-07-22T15:08:02.789376,14.78040201,.00231809,98.0023,89.2710,286.1393,73.7266,0,U,36110,999,89486,.51407222E-4,.319E-5,0
XIWANG-1 (HOPE-1),2009-072B,2026-07-22T23:07:23.225664,13.16439539,.00077524,100.4040,157.2272,147.4575,212.7017,0,U,36122,999,79771,-.62131842E-3,-.282E-5,0
RADUGA-1M 2,2010-002A,2026-07-22T22:15:23.644800,0.98970001,.00046202,3.7114,78.4140,264.4126,72.6083,0,U,36358,999,5037,0,-.273E-5,0
COSMOS 2463,2010-017A,2026-07-22T19:27:19.200960,13.71667437,.00368988,82.9578,223.5312,33.2742,143.2192,0,U,36519,999,81281,.24155383E-4,.37E-6,0
CARTOSAT-2B,2010-035A,2026-07-22T22:25:41.638080,14.78655836,.00127559,97.9935,254.2512,77.9360,282.3279,0,U,36795,999,86513,.21714882E-4,.107E-5,0
AISSAT 1,2010-035C,2026-07-22T16:37:22.984896,14.97498274,.00076432,98.0887,104.1847,308.2049,51.8483,0,U,36797,999,86953,.11384173E-3,.1264E-4,0
TISAT 1,2010-035E,2026-07-22T07:32:14.506656,15.32930011,.00048339,98.0706,153.0175,106.5546,253.6226,0,U,36799,999,87308,.69641768E-3,.2211E-3,0
YAOGAN-10,2010-038A,2026-07-22T23:46:46.888608,14.85447272,.00016522,97.8978,227.1099,85.2644,0.3132,0,U,36834,999,86252,.18145242E-3,.151E-4,0
SHIJIAN-6 04B (SJ-6 04B),2010-051B,2026-07-22T23:51:14.826240,14.99379845,.0008703,97.8728,209.7880,188.2605,171.8476,0,U,37180,999,86104,-.1447416E-5,-.79E-6,0
FENGYUN 3B,2010-059A,2026-07-22T22:59:00.380256,14.14846554,.00232639,98.9604,250.1199,85.7782,35.2058,0,U,37214,999,81248,-.17973685E-3,-.393E-5,0
COSMO-SKYMED 4,2010-060A,2026-07-22T22:54:12.150720,14.82158784,.00015656,97.8906,27.0374,87.1014,273.0378,0,U,37216,999,84986,.13346833E-3,.101E-4,0
O/OREOS (USA 219),2010-062C,2026-07-22T10:05:34.335456,14.93871007,.00144818,71.9704,0.5182,351.1937,8.8977,0,U,37224,999,12190,.15681122E-3,.1606E-4,0
ELEKTRO-L 1 (GOMS 2),2011-001A,2026-07-22T15:51:21.398112,1.00163247,.00043847,9.7642,54.1385,35.7121,322.4542,0,U,37344,999,5683,0,.42E-6,0
RESOURCESAT-2,2011-015A,2026-07-22T21:56:00.481344,14.21600835,.00119796,98.7625,271.1053,149.8556,210.3313,0,U,37387,999,79125,.44737621E-4,.54E-6,0
YOUTHSAT,2011-015B,2026-07-22T20:58:04.636128,14.25642919,.00133535,98.3711,176.3238,234.6831,153.2866,0,U,37388,999,79272,.81302387E-4,.151E-5,0
APRIZESAT 6,2011-044F,2026-07-22T07:40:21.097632,14.76964313,.00424939,98.2329,114.5327,335.3434,147.2526,0,U,37793,999,80233,.89357335E-4,.581E-5,0
JUGNU,2011-058B,2026-07-22T22:43:52.812192,14.13785237,.00186572,19.9608,91.1655,111.5761,351.8524,0,U,37839,999,76409,.70021469E-4,.401E-5,0
SRMSAT,2011-058D,2026-07-22T17:31:57.975168,14.11582174,.00115652,19.9701,204.3328,234.5012,307.5030,0,U,37841,999,76284,.46977244E-4,.352E-5,0
